$$SOE
2459580.500000000, A.D. 2022-Jan-01 00:00:00.0000, 3.150900604228602E+08, 9.509376227757134E+07, 1.272937271268355E+07,
2459587.500000000, A.D. 2022-Jan-08 00:00:00.0000, 3.140641487125182E+08, 1.081083982283311E+08, 1.327965005590811E+07,
2459594.500000000, A.D. 2022-Jan-15 00:00:00.0000, 3.126232330693768E+08, 1.209801454516977E+08, 1.381237445329991E+07,
2459601.500000000, A.D. 2022-Jan-22 00:00:00.0000, 3.107805036970986E+08, 1.336963601179260E+08, 1.432734017125522E+07,
2459608.500000000, A.D. 2022-Jan-29 00:00:00.0000, 3.085492719742501E+08, 1.462454051105390E+08, 1.482438944278669E+07,
2459615.500000000, A.D. 2022-Feb-05 00:00:00.0000, 3.059429026494805E+08, 1.586166073685519E+08, 1.530340897900018E+07,
2459622.500000000, A.D. 2022-Feb-12 00:00:00.0000, 3.029747555746644E+08, 1.708002119921083E+08, 1.576432629827412E+07,
2459629.500000000, A.D. 2022-Feb-19 00:00:00.0000, 2.996581352539512E+08, 1.827873362869277E+08, 1.620710621277133E+07,
2459636.500000000, A.D. 2022-Feb-26 00:00:00.0000, 2.960062464596105E+08, 1.945699237206674E+08, 1.663174755252835E+07,
2459643.500000000, A.D. 2022-Mar-05 00:00:00.0000, 2.920321556112698E+08, 2.061406977634463E+08, 1.703828007564382E+07,
2459650.500000000, A.D. 2022-Mar-12 00:00:00.0000, 2.877487576650442E+08, 2.174931160374401E+08, 1.742676154754975E+07,
2459657.500000000, A.D. 2022-Mar-19 00:00:00.0000, 2.831687481072890E+08, 2.286213252053174E+08, 1.779727498981819E+07,
2459664.500000000, A.D. 2022-Mar-26 00:00:00.0000, 2.783045996074741E+08, 2.395201169139979E+08, 1.814992609736803E+07,
2459671.500000000, A.D. 2022-Apr-02 00:00:00.0000, 2.731685429458066E+08, 2.501848849905764E+08, 1.848484081207874E+07,
2459678.500000000, A.D. 2022-Apr-09 00:00:00.0000, 2.677725520570920E+08, 2.606115840873060E+08, 1.880216302499858E+07,
2459685.500000000, A.D. 2022-Apr-16 00:00:00.0000, 2.621283331429680E+08, 2.707966905678054E+08, 1.910205242269190E+07,
2459692.500000000, A.D. 2022-Apr-23 00:00:00.0000, 2.562473162017819E+08, 2.807371668079282E+08, 1.938468267577119E+07,
2459699.500000000, A.D. 2022-Apr-30 00:00:00.0000, 2.501406467479355E+08, 2.904304267217696E+08, 1.965023995072564E+07,
2459706.500000000, A.D. 2022-May-07 00:00:00.0000, 2.438191804625086E+08, 2.998743005696258E+08, 1.989892129605660E+07,
2459713.500000000, A.D. 2022-May-14 00:00:00.0000, 2.372934818724025E+08, 3.090670020831724E+08, 2.013093301508245E+07,
2459720.500000000, A.D. 2022-May-21 00:00:00.0000, 2.305738247557569E+08, 3.180070986410329E+08, 2.034648926500352E+07,
2459727.500000000, A.D. 2022-May-28 00:00:00.0000, 2.236701935501426E+08, 3.266934834968038E+08, 2.054581083955917E+07,
2459734.500000000, A.D. 2022-Jun-04 00:00:00.0000, 2.165922858218679E+08, 3.351253496953431E+08, 2.072912407621269E+07,
2459741.500000000, A.D. 2022-Jun-11 00:00:00.0000, 2.093495157455355E+08, 3.433021656183173E+08, 2.089665986685251E+07,
2459748.500000000, A.D. 2022-Jun-18 00:00:00.0000, 2.019510184583156E+08, 3.512236521041020E+08, 2.104865276190262E+07,
2459755.500000000, A.D. 2022-Jun-25 00:00:00.0000, 1.944056551638413E+08, 3.588897610360585E+08, 2.118534015515065E+07,
2459762.500000000, A.D. 2022-Jul-02 00:00:00.0000, 1.867220189834384E+08, 3.663006552580359E+08, 2.130696152476424E+07,
2459769.500000000, A.D. 2022-Jul-09 00:00:00.0000, 1.789084418257706E+08, 3.734566899177566E+08, 2.141375770272179E+07,
2459776.500000000, A.D. 2022-Jul-16 00:00:00.0000, 1.709730021170507E+08, 3.803583962434776E+08, 2.150597025993359E+07,
2459783.500000000, A.D. 2022-Jul-23 00:00:00.0000, 1.629235311031103E+08, 3.870064677499316E+08, 2.158384120867676E+07,
2459790.500000000, A.D. 2022-Jul-30 00:00:00.0000, 1.547676177241355E+08, 3.934017454393350E+08, 2.164761273497066E+07,
2459797.500000000, A.D. 2022-Aug-06 00:00:00.0000, 1.465126155905565E+08, 3.995452025736091E+08, 2.169752667899847E+07,
2459804.500000000, A.D. 2022-Aug-13 00:00:00.0000, 1.381656511777311E+08, 4.054379317004576E+08, 2.173382405937001E+07,
2459811.500000000, A.D. 2022-Aug-20 00:00:00.0000, 1.297336316166973E+08, 4.110811333609530E+08, 2.175674473997495E+07,
2459818.500000000, A.D. 2022-Aug-27 00:00:00.0000, 1.212232521046633E+08, 4.164761056896061E+08, 2.176652717050266E+07,
2459825.500000000, A.D. 2022-Sep-03 00:00:00.0000, 1.126410031478779E+08, 4.216242347375868E+08, 2.176340816573730E+07,
2459832.500000000, A.D. 2022-Sep-10 00:00:00.0000, 1.039931776984625E+08, 4.265269854858730E+08, 2.174762271414578E+07,
2459839.500000000, A.D. 2022-Sep-17 00:00:00.0000, 9.528587819077533E+07, 4.311858934911065E+08, 2.171940380973005E+07,
2459846.500000000, A.D. 2022-Sep-24 00:00:00.0000, 8.652502351746777E+07, 4.356025570602468E+08, 2.167898229437447E+07,
2459853.500000000, A.D. 2022-Oct-01 00:00:00.0000, 7.771635616811787E+07, 4.397786298819740E+08, 2.162658668399730E+07,
2459860.500000000, A.D. 2022-Oct-08 00:00:00.0000, 6.886544992385297E+07, 4.437158145911999E+08, 2.156244298119840E+07,
2459867.500000000, A.D. 2022-Oct-15 00:00:00.0000, 5.997771716630152E+07, 4.474158584235941E+08, 2.148677465534711E+07,
2459874.500000000, A.D. 2022-Oct-22 00:00:00.0000, 5.105841361210778E+07, 4.508805492337960E+08, 2.139980285010245E+07,
2459881.500000000, A.D. 2022-Oct-29 00:00:00.0000, 4.211264296264418E+07, 4.541117092445472E+08, 2.130174637537873E+07,
2459888.500000000, A.D. 2022-Nov-05 00:00:00.0000, 3.314536356356430E+07, 4.571111892364860E+08, 2.119282151355490E+07,
2459895.500000000, A.D. 2022-Nov-12 00:00:00.0000, 2.416139510886486E+07, 4.598808644147624E+08, 2.107324192186722E+07,
2459902.500000000, A.D. 2022-Nov-19 00:00:00.0000, 1.516542466968529E+07, 4.624226309674014E+08, 2.094321861738205E+07,
2459909.500000000, A.D. 2022-Nov-26 00:00:00.0000, 6.162012310281894E+06, 4.647384028900194E+08, 2.080295998669213E+07,
2459916.500000000, A.D. 2022-Dec-03 00:00:00.0000, -2.844403541305500E+06, 4.668301090397499E+08, 2.065267180298874E+07,
2459923.500000000, A.D. 2022-Dec-10 00:00:00.0000, -1.184950091984252E+07, 4.686996904132135E+08, 2.049255724680799E+07,
2459930.500000000, A.D. 2022-Dec-17 00:00:00.0000, -2.084906931879988E+07, 4.703490976011462E+08, 2.032281692518950E+07,
2459937.500000000, A.D. 2022-Dec-24 00:00:00.0000, -2.983900474260188E+07, 4.717802883328150E+08, 2.014364887298244E+07,
2459944.500000000, A.D. 2022-Dec-31 00:00:00.0000, -3.881530445403451E+07, 4.729952251982558E+08, 1.995524851154938E+07,
2459951.500000000, A.D. 2023-Jan-07 00:00:00.0000, -4.777406129060863E+07, 4.739958744935551E+08, 1.975780863163665E+07,
2459958.500000000, A.D. 2023-Jan-14 00:00:00.0000, -5.671145951236011E+07, 4.747842066708235E+08, 1.955151962083769E+07,
2459965.500000000, A.D. 2023-Jan-21 00:00:00.0000, -6.562377282065582E+07, 4.753621952039392E+08, 1.933656973499542E+07,
2459972.500000000, A.D. 2023-Jan-28 00:00:00.0000, -7.450736087722030E+07, 4.757318136600387E+08, 1.911314506096709E+07,
2459979.500000000, A.D. 2023-Feb-04 00:00:00.0000, -8.335866452821310E+07, 4.758950339951603E+08, 1.888142943714198E+07,
2459986.500000000, A.D. 2023-Feb-11 00:00:00.0000, -9.217420152254862E+07, 4.758538258706918E+08, 1.864160448025787E+07,
2459993.500000000, A.D. 2023-Feb-18 00:00:00.0000, -1.009505627820880E+08, 4.756101561568959E+08, 1.839384965683547E+07,
2460000.500000000, A.D. 2023-Feb-25 00:00:00.0000, -1.096844089557785E+08, 4.751659884522415E+08, 1.813834236178267E+07,
2460007.500000000, A.D. 2023-Mar-04 00:00:00.0000, -1.183724671504551E+08, 4.745232826289511E+08, 1.787525799623868E+07,
2460014.500000000, A.D. 2023-Mar-11 00:00:00.0000, -1.270115278045451E+08, 4.736839943976911E+08, 1.760477004201818E+07,
2460021.500000000, A.D. 2023-Mar-18 00:00:00.0000, -1.355984416523507E+08, 4.726500748349599E+08, 1.732705012426177E+07,
2460028.500000000, A.D. 2023-Mar-25 00:00:00.0000, -1.441301165701986E+08, 4.714234698193330E+08, 1.704226803977036E+07,
2460035.500000000, A.D. 2023-Apr-01 00:00:00.0000, -1.526035138746286E+08, 4.700061197634666E+08, 1.675059174422526E+07,
2460042.500000000, A.D. 2023-Apr-08 00:00:00.0000, -1.610156446831385E+08, 4.683999608609202E+08, 1.645218745482811E+07,
2460049.500000000, A.D. 2023-Apr-15 00:00:00.0000, -1.693635686693578E+08, 4.666069267360197E+08, 1.614721999227527E+07,
2460056.500000000, A.D. 2023-Apr-22 00:00:00.0000, -1.776443933987205E+08, 4.646289474373924E+08, 1.583585294677171E+07,
2460063.500000000, A.D. 2023-Apr-29 00:00:00.0000, -1.858552715080303E+08, 4.624679480225492E+08, 1.551824860153937E+07,
2460070.500000000, A.D. 2023-May-06 00:00:00.0000, -1.939933974873330E+08, 4.601258485136982E+08, 1.519456792083374E+07,
2460077.500000000, A.D. 2023-May-13 00:00:00.0000, -2.020560050368824E+08, 4.576045643301141E+08, 1.486497061886799E+07,
2460084.500000000, A.D. 2023-May-20 00:00:00.0000, -2.100403647607467E+08, 4.549060067037255E+08, 1.452961524779895E+07,
2460091.500000000, A.D. 2023-May-27 00:00:00.0000, -2.179437819995279E+08, 4.520320830460313E+08, 1.418865928432539E+07,
2460098.500000000, A.D. 2023-Jun-03 00:00:00.0000, -2.257635947408103E+08, 4.489846972898813E+08, 1.384225921141559E+07,
2460105.500000000, A.D. 2023-Jun-10 00:00:00.0000, -2.334971715800577E+08, 4.457657501899899E+08, 1.349057059153840E+07,
2460112.500000000, A.D. 2023-Jun-17 00:00:00.0000, -2.411419096396908E+08, 4.423771395199125E+08, 1.313374811803249E+07,
2460119.500000000, A.D. 2023-Jun-24 00:00:00.0000, -2.486952321234088E+08, 4.388207602191505E+08, 1.277194561957100E+07,
2460126.500000000, A.D. 2023-Jul-01 00:00:00.0000, -2.561545852501414E+08, 4.350985053169554E+08, 1.240531606199172E+07,
2460133.500000000, A.D. 2023-Jul-08 00:00:00.0000, -2.635174362395891E+08, 4.312122684544967E+08, 1.203401176803702E+07,
2460140.500000000, A.D. 2023-Jul-15 00:00:00.0000, -2.707812736229488E+08, 4.271639451755704E+08, 1.165818474069905E+07,
2460147.500000000, A.D. 2023-Jul-22 00:00:00.0000, -2.779436063537372E+08, 4.229554319492124E+08, 1.127798668265986E+07,
$$EOE